{"type": "FeatureCollection", "features": [ {"type": "Feature", "properties": {"norad_id": 45358, "name": "COSMOS 2545 (760)", "group": "glo-ops", "lat": 16.789648653272057, "lon": 130.5713326005825, "alt_km": 19126.873135666356, "timestamp": "2025-12-15T11:38:37.414720+00:00", "meta": {"OBJECT_NAME": "COSMOS 2545 (760)", "OBJECT_ID": "2020-018A", "EPOCH": "2025-12-10T13:58:04.872576", "MEAN_MOTION": 2.13102273, "ECCENTRICITY": 0.00118432, "INCLINATION": 64.471, "RA_OF_ASC_NODE": 319.0455, "ARG_OF_PERICENTER": 248.8319, "MEAN_ANOMALY": 111.0396, "EPHEMERIS_TYPE": 0, "CLASSIFICATION_TYPE": "U", "NORAD_CAT_ID": 45358, "ELEMENT_SET_NO": 999, "REV_AT_EPOCH": 4464, "BSTAR": 0, "MEAN_MOTION_DOT": -5.2e-07, "MEAN_MOTION_DDOT": 0}, "tle": {"line1": "1 45358U 20018A   25344.58200084 -.00000052  00000+0  00000+0 0  9997", "line2": "2 45358  64.4710 319.0455 0011843 248.8319 111.0396  2.13102273 44648"}}, "geometry": {"type": "Point", "coordinates": [130.5713326005825, 16.789648653272057]}}, {"type": "Feature", "properties": {"norad_id": 46805, "name": "COSMOS 2547 (705K)", "group": "glo-ops", "lat": 15.491269034972198, "lon": -153.82350543795192, "alt_km": 19142.19800435819, "timestamp": "2025-12-15T11:38:37.414732+00:00", "meta": {"OBJECT_NAME": "COSMOS 2547 (705K)", "OBJECT_ID": "2020-075A", "EPOCH": "2025-12-13T02:47:35.788416", "MEAN_MOTION": 2.13100044, "ECCENTRICITY": 0.00062786, "INCLINATION": 64.5959, "RA_OF_ASC_NODE": 198.6839, "ARG_OF_PERICENTER": 228.7725, "MEAN_ANOMALY": 131.2461, "EPHEMERIS_TYPE": 0, "CLASSIFICATION_TYPE": "U", "NORAD_CAT_ID": 46805, "ELEMENT_SET_NO": 999, "REV_AT_EPOCH": 3994, "BSTAR": 0, "MEAN_MOTION_DOT": 7.7e-07, "MEAN_MOTION_DDOT": 0}, "tle": {"line1": "1 46805U 20075A   25347.11638644  .00000077  00000+0  00000+0 0  9993", "line2": "2 46805  64.5959 198.6839 0006278 228.7725 131.2461  2.13100044 39941"}}, "geometry": {"type": "Point", "coordinates": [-153.82350543795192, 15.491269034972198]}}, {"type": "Feature", "properties": {"norad_id": 52984, "name": "COSMOS 2557 (706K)", "group": "glo-ops", "lat": -58.083534526432594, "lon": -168.76295635363823, "alt_km": 19104.891037024412, "timestamp": "2025-12-15T11:38:37.414743+00:00", "meta": {"OBJECT_NAME": "COSMOS 2557 (706K)", "OBJECT_ID": "2022-075A", "EPOCH": "2025-12-07T04:21:00.419904", "MEAN_MOTION": 2.13101754, "ECCENTRICITY": 0.00137049, "INCLINATION": 64.4129, "RA_OF_ASC_NODE": 321.247, "ARG_OF_PERICENTER": 276.9, "MEAN_ANOMALY": 82.939, "EPHEMERIS_TYPE": 0, "CLASSIFICATION_TYPE": "U", "NORAD_CAT_ID": 52984, "ELEMENT_SET_NO": 999, "REV_AT_EPOCH": 2662, "BSTAR": 0, "MEAN_MOTION_DOT": -5.2e-07, "MEAN_MOTION_DDOT": 0}, "tle": {"line1": "1 52984U 22075A   25341.18125486 -.00000052  00000+0  00000+0 0  9990", "line2": "2 52984  64.4129 321.2470 0013704 276.9000  82.9390  2.13101754 26625"}}, "geometry": {"type": "Point", "coordinates": [-168.76295635363823, -58.083534526432594]}}, {"type": "Feature", "properties": {"norad_id": 54031, "name": "COSMOS 2559 (707K)", "group": "glo-ops", "lat": 26.007991194597665, "lon": -25.430093383027142, "alt_km": 19155.713663676113, "timestamp": "2025-12-15T11:38:37.414754+00:00", "meta": {"OBJECT_NAME": "COSMOS 2559 (707K)", "OBJECT_ID": "2022-130A", "EPOCH": "2025-12-14T00:56:40.379136", "MEAN_MOTION": 2.13101379, "ECCENTRICITY": 0.00117642, "INCLINATION": 64.3815, "RA_OF_ASC_NODE": 321.0953, "ARG_OF_PERICENTER": 192.3475, "MEAN_ANOMALY": 167.6228, "EPHEMERIS_TYPE": 0, "CLASSIFICATION_TYPE": "U", "NORAD_CAT_ID": 54031, "ELEMENT_SET_NO": 999, "REV_AT_EPOCH": 2474, "BSTAR": 0, "MEAN_MOTION_DOT": -6.6e-07, "MEAN_MOTION_DDOT": 0}, "tle": {"line1": "1 54031U 22130A   25348.03935624 -.00000066  00000+0  00000+0 0  9996", "line2": "2 54031  64.3815 321.0953 0011764 192.3475 167.6228  2.13101379 24741"}}, "geometry": {"type": "Point", "coordinates": [-25.430093383027142, 26.007991194597665]}}, {"type": "Feature", "properties": {"norad_id": 54377, "name": "COSMOS 2564 (761)", "group": "glo-ops", "lat": 28.091706966953996, "lon": 4.212312411101373, "alt_km": 19114.44290250483, "timestamp": "2025-12-15T11:38:37.414765+00:00", "meta": {"OBJECT_NAME": "COSMOS 2564 (761)", "OBJECT_ID": "2022-161A", "EPOCH": "2025-12-14T19:43:47.966016", "MEAN_MOTION": 2.13102112, "ECCENTRICITY": 0.00085919, "INCLINATION": 64.7383, "RA_OF_ASC_NODE": 198.8297, "ARG_OF_PERICENTER": 204.5359, "MEAN_ANOMALY": 155.5011, "EPHEMERIS_TYPE": 0, "CLASSIFICATION_TYPE": "U", "NORAD_CAT_ID": 54377, "ELEMENT_SET_NO": 999, "REV_AT_EPOCH": 2370, "BSTAR": 0, "MEAN_MOTION_DOT": 9.9e-07, "MEAN_MOTION_DDOT": 0}, "tle": {"line1": "1 54377U 22161A   25348.82208294  .00000099  00000+0  00000+0 0  9991", "line2": "2 54377  64.7383 198.8297 0008591 204.5359 155.5011  2.13102112 23707"}}, "geometry": {"type": "Point", "coordinates": [4.212312411101373, 28.091706966953996]}}, {"type": "Feature", "properties": {"norad_id": 57517, "name": "COSMOS 2569 (703K)", "group": "glo-ops", "lat": 37.13364750225794, "lon": -121.63816611508803, "alt_km": 19148.441054092993, "timestamp": "2025-12-15T11:38:37.414775+00:00", "meta": {"OBJECT_NAME": "COSMOS 2569 (703K)", "OBJECT_ID": "2023-114A", "EPOCH": "2025-12-13T21:31:33.711744", "MEAN_MOTION": 2.13104015, "ECCENTRICITY": 0.00105602, "INCLINATION": 65.1948, "RA_OF_ASC_NODE": 78.8743, "ARG_OF_PERICENTER": 286.9875, "MEAN_ANOMALY": 72.9108, "EPHEMERIS_TYPE": 0, "CLASSIFICATION_TYPE": "U", "NORAD_CAT_ID": 57517, "ELEMENT_SET_NO": 999, "REV_AT_EPOCH": 1831, "BSTAR": 0, "MEAN_MOTION_DOT": -5.2e-07, "MEAN_MOTION_DDOT": 0}, "tle": {"line1": "1 57517U 23114A   25347.89691796 -.00000052  00000+0  00000+0 0  9998", "line2": "2 57517  65.1948  78.8743 0010560 286.9875  72.9108  2.13104015 18311"}}, "geometry": {"type": "Point", "coordinates": [-121.63816611508803, 37.13364750225794]}}, {"type": "Feature", "properties": {"norad_id": 63130, "name": "COSMOS 2584 (704K)", "group": "glo-ops", "lat": -40.23291963601457, "lon": -77.70410449601884, "alt_km": 19115.39814643751, "timestamp": "2025-12-15T11:38:37.414786+00:00", "meta": {"OBJECT_NAME": "COSMOS 2584 (704K)", "OBJECT_ID": "2025-042A", "EPOCH": "2025-12-14T06:03:59.682240", "MEAN_MOTION": 2.13103048, "ECCENTRICITY": 0.0007684, "INCLINATION": 64.9768, "RA_OF_ASC_NODE": 79.0943, "ARG_OF_PERICENTER": 217.8285, "MEAN_ANOMALY": 142.1308, "EPHEMERIS_TYPE": 0, "CLASSIFICATION_TYPE": "U", "NORAD_CAT_ID": 63130, "ELEMENT_SET_NO": 999, "REV_AT_EPOCH": 610, "BSTAR": 0, "MEAN_MOTION_DOT": -5.4e-07, "MEAN_MOTION_DDOT": 0}, "tle": {"line1": "1 63130U 25042A   25348.25277410 -.00000054  00000+0  00000+0 0  9994", "line2": "2 63130  64.9768  79.0943 0007684 217.8285 142.1308  2.13103048  6103"}}, "geometry": {"type": "Point", "coordinates": [-77.70410449601884, -40.23291963601457]}}, {"type": "Feature", "properties": {"norad_id": 65590, "name": "COSMOS 2596 (708K)", "group": "glo-ops", "lat": -14.465992891262236, "lon": -45.62743909675958, "alt_km": 19103.81767066579, "timestamp": "2025-12-15T11:38:37.414798+00:00", "meta": {"OBJECT_NAME": "COSMOS 2596 (708K)", "OBJECT_ID": "2025-206B", "EPOCH": "2025-12-14T19:11:43.005984", "MEAN_MOTION": 2.13100538, "ECCENTRICITY": 0.00140549, "INCLINATION": 64.743, "RA_OF_ASC_NODE": 321.4024, "ARG_OF_PERICENTER": 306.7253, "MEAN_ANOMALY": 231.3639, "EPHEMERIS_TYPE": 0, "CLASSIFICATION_TYPE": "U", "NORAD_CAT_ID": 65590, "ELEMENT_SET_NO": 999, "REV_AT_EPOCH": 198, "BSTAR": 0, "MEAN_MOTION_DOT": -6.7e-07, "MEAN_MOTION_DDOT": 0}, "tle": {"line1": "1 65590U 25206B   25348.79980331 -.00000067  00000+0  00000+0 0  9994", "line2": "2 65590  64.7430 321.4024 0014054 306.7253 231.3639  2.13100538  1985"}}, "geometry": {"type": "Point", "coordinates": [-45.62743909675958, -14.465992891262236]}}]}